OBJECT_NAME,OBJECT_ID,EPOCH,MEAN_MOTION,ECCENTRICITY,INCLINATION,RA_OF_ASC_NODE,ARG_OF_PERICENTER,MEAN_ANOMALY,EPHEMERIS_TYPE,CLASSIFICATION_TYPE,NORAD_CAT_ID,ELEMENT_SET_NO,REV_AT_EPOCH,BSTAR,MEAN_MOTION_DOT,MEAN_MOTION_DDOT
APRIZESAT 2,2004-025A,2026-07-09T06:31:48.499968,14.38045813,.01055269,98.1034,355.0043,182.7174,177.3454,0,U,28366,999,15481,.62531368E-4,.16E-5,0
SAUDICOMSAT 1,2004-025D,2026-07-09T06:57:23.244768,14.55490937,.00312399,98.5774,201.0180,317.5542,42.3238,0,U,28369,999,16734,.65510945E-4,.237E-5,0
SAUDICOMSAT 2,2004-025E,2026-07-09T06:37:42.655296,14.49992506,.00552256,98.6641,203.1469,191.6361,168.3560,0,U,28370,999,16330,.47915304E-4,.139E-5,0
APRIZESAT 1,2004-025G,2026-07-09T00:06:58.431744,14.51789639,.00458148,98.6306,201.3241,88.9946,271.6497,0,U,28372,999,16507,.5470694E-4,.174E-5,0
NANOSAT-1,2004-049B,2026-07-09T14:41:45.343104,14.80204087,.0003359,98.2302,327.8253,203.2286,156.8773,0,U,28493,999,15876,.95293E-4,.669E-5,0
SAUDICOMSAT 7,2007-012C,2026-07-08T21:12:51.373152,14.66132281,.00567265,98.3792,164.4612,127.6525,232.9844,0,U,31119,999,2561,.74757171E-4,.367E-5,0
SAUDICOMSAT 6,2007-012E,2026-07-09T17:38:23.129088,14.62581639,.0070379,98.4112,158.6731,256.4100,102.9255,0,U,31121,999,2348,.59882E-4,.26E-5,0
SAUDICOMSAT 5,2007-012H,2026-07-08T21:29:00.032064,14.68186610,.00485537,98.3503,165.2151,58.2421,302.3501,0,U,31124,999,2678,.9118469E-4,.48E-5,0
SAUDICOMSAT 3,2007-012J,2026-07-09T18:29:25.840608,14.70744445,.003863,98.3158,166.6551,342.6618,17.3265,0,U,31125,999,2814,.95362E-4,.534E-5,0
SAUDICOMSAT 4,2007-012L,2026-07-09T18:27:55.240704,14.64532489,.0063168,98.3999,163.8022,186.6883,173.3482,0,U,31127,999,2459,.58823E-4,.267E-5,0
APRIZESAT 4,2009-041D,2026-07-09T17:04:43.101408,14.83909146,.0041979,98.1405,266.4805,247.7993,111.8764,0,U,35684,999,91470,.59423E-4,.441E-5,0
APRIZESAT 3,2009-041F,2026-07-08T08:45:11.827008,14.96295907,.0061311,98.2085,343.6064,358.3556,1.7453,0,U,35686,999,91954,.99795372E-4,.1101E-4,0
S-NET D,2018-014G,2026-07-09T15:04:33.010176,15.16885601,.0006524,97.5339,95.2792,309.0111,51.0541,0,U,43186,999,46216,.18114E-3,.3501E-4,0
S-NET B,2018-014H,2026-07-09T15:21:40.504032,15.16855481,.0007096,97.5346,95.2784,303.0334,57.0217,0,U,43187,999,46216,.16139E-3,.3109E-4,0
S-NET A,2018-014J,2026-07-09T15:02:45.316896,15.16893875,.0006995,97.5356,95.4785,303.8075,56.2492,0,U,43188,999,46216,.18102E-3,.3499E-4,0
S-NET C,2018-014K,2026-07-09T15:27:25.570944,15.16846911,.0008208,97.5371,95.5735,293.6580,66.3791,0,U,43189,999,46071,.15577E-3,.2998E-4,0
SALSAT,2020-068K,2026-07-09T06:02:33.013536,15.30117525,.00085936,97.8858,194.6644,215.0810,144.9864,0,U,46495,999,31873,.19084228E-3,.5482E-4,0
OOV-CUBE (TUBSAT-30),2024-128F,2026-07-09T14:40:40.950048,15.02859618,.0041807,61.9941,147.3745,138.6969,221.7297,0,U,60240,999,10948,.11249E-3,.1327E-4,0
LPNTSAT-001 (IOD-1),2026-065A,2026-07-09T02:02:09.591936,15.18649595,.0014688,97.3994,70.1296,290.2392,69.7263,0,U,68408,999,1558,.8738392E-4,.1746E-4,0
